[{"OBJECT_NAME":"STARLINK-36092","OBJECT_ID":"2025-281X","EPOCH":"2026-03-09T04:05:46.028832","MEAN_MOTION":15.27588836,"ECCENTRICITY":0.00011836,"INCLINATION":43.0018,"RA_OF_ASC_NODE":346.622,"ARG_OF_PERICENTER":269.248,"MEAN_ANOMALY":90.8236,"EPHEMERIS_TYPE":0,"CLASSIFICATION_TYPE":"U","NORAD_CAT_ID":66869,"ELEMENT_SET_NO":999,"REV_AT_EPOCH":1609,"BSTAR":0.00099106451,"MEAN_MOTION_DOT":0.00027117,"MEAN_MOTION_DDOT":0},{"OBJECT_NAME":"FENGYUN 1C DEB","OBJECT_ID":"1999-025ETT","EPOCH":"2026-03-07T08:30:03.670560","MEAN_MOTION":15.28888299,"ECCENTRICITY":0.00158464,"INCLINATION":99.1103,"RA_OF_ASC_NODE":112.0072,"ARG_OF_PERICENTER":201.0032,"MEAN_ANOMALY":159.0553,"EPHEMERIS_TYPE":0,"CLASSIFICATION_TYPE":"U","NORAD_CAT_ID":38726,"ELEMENT_SET_NO":999,"REV_AT_EPOCH":71135,"BSTAR":0.013792546,"MEAN_MOTION_DOT":0.00409659,"MEAN_MOTION_DDOT":0}]
